STARLINK-1568_new
1 16080C 20055BF  21326.13722205  .00003361  00000-0  22526-3 0  3263
2 16080  53.0523 298.1349 0001865  54.1149  52.8267 15.06388777    11
STARLINK-1568_old
1 26080C 20055BF  21325.17814310 -.00018519  00000-0 -12407-2 0  3253
2 26080  53.0523 302.4406 0001830  55.3159 247.6112 15.06419008    15
